
LEMUR-2-AFFIE-WAUWIE
1 66295U 25248C   26170.14891995  .00015354  00000+0  57489-3 0  9994
2 66295  45.3921 104.3599 0007326  97.1817 262.9905 15.27203290 34894

LEMUR-2-BALTO
1 63395U 25052BH  26170.25452984  .00005000  00000+0  40543-3 0  9998
2 63395  97.6898  63.8384 0006892  52.6354 307.5496 15.00106721 69076

LEMUR-2-CELIJO-SB-PK
1 66781U 25276DW  26169.77100644  .00004746  00000+0  38602-3 0  9995
2 66781  97.5245 240.4969 0008683 128.7901 231.4100 14.99992221 22866

LEMUR-2-DEANANDMAEVE
1 66678U 25276N   26170.15827008  .00005355  00000+0  25348-3 0  9994
2 66678  97.4207 243.6012 0005522   8.0424 352.0898 15.19752632 30711

LEMUR-2-DELOITTE-1
1 63259U 25052BB  26170.25604701  .00003687  00000+0  32026-3 0  9999
2 63259  97.6922  62.9789 0003508  92.8328 267.3296 14.97619025 69005

LEMUR-2-EMERSONROSE
1 63261U 25052BD  26170.22918672  .00002917  00000+0  24501-3 0  9998
2 63261  97.6879  63.5151 0001725  69.5131 290.6277 14.99090586 69040

LEMUR-2-ESPERANZA
1 63352U 25061B   26169.91693855  .00002470  00000+0  14102-3 0  9996
2 63352  97.5645 145.3599 0016538 257.2672 102.6711 15.13579125 67850

LEMUR-2-HUBBLE-4
1 64565U 25135AP  26170.21374041  .00001171  00000+0  11750-3 0  9996
2 64565  97.7701 284.0949 0000906 291.3171  68.7951 14.93203251 54177

LEMUR-2-HUBBLE-5
1 64840U 25135BT  26170.30047433  .00000822  00000+0  82167-4 0  9997
2 64840  97.7720 284.8181 0004911 346.1409  13.9676 14.94140172 54228

LEMUR-2-KARENDARRELL
1 64841U 25135BU  26170.25266983  .00006324  00000+0  51093-3 0  9991
2 64841  97.7683 286.4570 0009843 194.0466 166.0485 15.00134716 54323

LEMUR-2-KREMPEL-BRO1
1 63357U 25061G   26170.16949632  .00002883  00000+0  15929-3 0  9993
2 63357  97.5612 146.0546 0017076 238.9638 120.9917 15.14603598 67938

LEMUR-2-KREMPEL-BRO2
1 63353U 25061C   26170.00950958  .00003206  00000+0  17960-3 0  9992
2 63353  97.5692 145.9874 0017565 248.5550 111.3808 15.14016744 67885

LEMUR-2-KRISH
1 64561U 25135AK  26170.28128233  .00003999  00000+0  35957-3 0  9994
2 64561  97.7755 285.1430 0001695  97.4933 262.6480 14.96226608 54239

LEMUR-2-LAILA
1 66776U 25276DQ  26170.19424418  .00004643  00000+0  21070-3 0  9992
2 66776  97.4170 244.0523 0002323 133.2875 226.8555 15.21290328 30752

LEMUR-2-LANGER2SPACE
1 63358U 25061H   26170.19639732  .00003052  00000+0  16998-3 0  9990
2 63358  97.5615 145.8944 0014988 248.6206 111.3426 15.14301128 67921

LEMUR-2-LEIA-PHILIP
1 63246U 25052AN  26170.20817200  .00000537  00000+0  51257-4 0  9999
2 63246  97.6835  62.1254 0002771 203.4667 156.6429 14.97322739 68976

LEMUR-2-LIA-MARTIN
1 63248U 25052AQ  26170.01215731  .00002763  00000+0  24009-3 0  9998
2 63248  97.6886  62.4103 0003029 154.8333 205.3038 14.97813042 68954

LEMUR-2-LUCILLE-ROSE
1 65403U 25135BV  26170.22631693  .00005275  00000+0  42649-3 0  9998
2 65403  97.7759 286.4522 0011325 274.4918  85.5011 15.00174201 48946

LEMUR-2-MARACHE-FRAN
1 63262U 25052BE  26170.20311767  .00004132  00000+0  33594-3 0  9992
2 63262  97.6935  63.8105 0005163  15.8255 344.3129 15.00118220 69061

LEMUR-2-MYNAMEISJEFF
1 62712U 25009DH  26170.08835159  .00006536  00000+0  47960-3 0  9997
2 62712  97.7300 253.1474 0003776 146.3920 213.7546 15.03822752 77917

LEMUR-2-NEUROSPICY
1 63355U 25061E   26169.89693502  .00003018  00000+0  16857-3 0  9993
2 63355  97.5625 145.5764 0015059 251.3644 108.5952 15.14211034 67875

LEMUR-2-ROUNDTRIPPER
1 62711U 25009DG  26170.22302782  .00007142  00000+0  52355-3 0  9991
2 62711  97.7254 252.8998 0005548 124.9404 235.2343 15.03820478 77938

LEMUR-2-SEJONG-2
1 64586U 25135BL  26170.31057782  .00003366  00000+0  29980-3 0  9992
2 64586  97.7686 285.3167 0003628 329.6650  30.4361 14.96708956 54265

LEMUR-2-STAS-GORBUK
1 66686U 25276W   26170.17323200  .00004391  00000+0  21063-3 0  9999
2 66686  97.4242 243.6708 0004918   8.8081 351.3239 15.19398174 30714

LEMUR-2-TEODOR
1 66768U 25276DG  26170.22062476  .00004975  00000+0  22699-3 0  9995
2 66768  97.4148 243.9563 0002212 114.9855 245.1611 15.21068802 30758

LEMUR-2-THEFALCONER
1 63264U 25052BG  26170.21589686  .00002500  00000+0  22002-3 0  9991
2 63264  97.6853  62.5581 0002395  26.7761 333.3584 14.97398279 68996

LEMUR-2-THERMORAPTOR
1 63354U 25061D   26170.18974408  .00002897  00000+0  16233-3 0  9995
2 63354  97.5696 146.2427 0017264 246.7014 113.2401 15.14098041 67913

LEMUR-2-TILLINFINITY
1 63356U 25061F   26170.19576760  .00003069  00000+0  16844-3 0  9997
2 63356  97.5609 146.1651 0016467 237.4607 122.5034 15.14798973 67945

LEMUR-2-UNTITLED-SC
1 63351U 25061A   26170.20436951  .00003405  00000+0  19340-3 0  9999
2 63351  97.5639 145.5514 0016970 256.8671 103.0666 15.13489129 67897
