OBJECT_NAME,OBJECT_ID,EPOCH,MEAN_MOTION,ECCENTRICITY,INCLINATION,RA_OF_ASC_NODE,ARG_OF_PERICENTER,MEAN_ANOMALY,EPHEMERIS_TYPE,CLASSIFICATION_TYPE,NORAD_CAT_ID,ELEMENT_SET_NO,REV_AT_EPOCH,BSTAR,MEAN_MOTION_DOT,MEAN_MOTION_DDOT
LEMUR-2-ROUNDTRIPPER,2025-009DG,2026-06-19T05:21:09.603648,15.03820478,.00055481,97.7254,252.8998,124.9404,235.2343,0,U,62711,999,7793,.52354905E-3,.7142E-4,0
LEMUR-2-MYNAMEISJEFF,2025-009DH,2026-06-19T02:07:13.577376,15.03822752,.00037768,97.7300,253.1474,146.3920,213.7546,0,U,62712,999,7791,.47959972E-3,.6536E-4,0
LEMUR-2-LEIA-PHILIP,2025-052AN,2026-06-19T04:59:46.060800,14.97322739,.00027718,97.6835,62.1254,203.4667,156.6429,0,U,63246,999,6897,.51256767E-4,.537E-5,0
LEMUR-2-LIA-MARTIN,2025-052AQ,2026-06-19T00:17:30.391584,14.97813042,.0003029,97.6886,62.4103,154.8333,205.3038,0,U,63248,999,6895,.2400932E-3,.2763E-4,0
LEMUR-2-DELOITTE-1,2025-052BB,2026-06-19T06:08:42.461664,14.97619025,.00035086,97.6922,62.9789,92.8328,267.3296,0,U,63259,999,6900,.32025658E-3,.3687E-4,0
LEMUR-2-EMERSONROSE,2025-052BD,2026-06-19T05:30:01.732608,14.99090586,.00017254,97.6879,63.5151,69.5131,290.6277,0,U,63261,999,6904,.24501056E-3,.2917E-4,0
LEMUR-2-MARACHE-FRAN,2025-052BE,2026-06-19T04:52:29.366688,15.00118220,.00051637,97.6935,63.8105,15.8255,344.3129,0,U,63262,999,6906,.33593906E-3,.4132E-4,0
LEMUR-2-THEFALCONER,2025-052BG,2026-06-19T05:10:53.488704,14.97398279,.0002395,97.6853,62.5581,26.7761,333.3584,0,U,63264,999,6899,.22002266E-3,.25E-4,0
LEMUR-2-UNTITLED-SC,2025-061A,2026-06-19T04:54:17.525664,15.13489129,.00169706,97.5639,145.5514,256.8671,103.0666,0,U,63351,999,6789,.19340079E-3,.3405E-4,0
LEMUR-2-ESPERANZA,2025-061B,2026-06-18T22:00:23.490720,15.13579125,.0016538,97.5645,145.3599,257.2672,102.6711,0,U,63352,999,6785,.14102E-3,.247E-4,0
LEMUR-2-KREMPEL-BRO2,2025-061C,2026-06-19T00:13:41.627712,15.14016744,.00175655,97.5692,145.9874,248.5550,111.3808,0,U,63353,999,6788,.17960292E-3,.3206E-4,0
LEMUR-2-THERMORAPTOR,2025-061D,2026-06-19T04:33:13.888512,15.14098041,.00172643,97.5696,146.2427,246.7014,113.2401,0,U,63354,999,6791,.16232927E-3,.2897E-4,0
LEMUR-2-NEUROSPICY,2025-061E,2026-06-18T21:31:35.185728,15.14211034,.0015059,97.5625,145.5764,251.3644,108.5952,0,U,63355,999,6787,.16857E-3,.3018E-4,0
LEMUR-2-TILLINFINITY,2025-061F,2026-06-19T04:41:54.320640,15.14798973,.00164677,97.5609,146.1651,237.4607,122.5034,0,U,63356,999,6794,.16844338E-3,.3069E-4,0
LEMUR-2-KREMPEL-BRO1,2025-061G,2026-06-19T04:04:04.482048,15.14603598,.00170762,97.5612,146.0546,238.9638,120.9917,0,U,63357,999,6793,.15929415E-3,.2883E-4,0
LEMUR-2-LANGER2SPACE,2025-061H,2026-06-19T04:42:48.728448,15.14301128,.00149888,97.5615,145.8944,248.6206,111.3426,0,U,63358,999,6792,.1699793E-3,.3052E-4,0
LEMUR-2-BALTO,2025-052BH,2026-06-19T06:06:31.378176,15.00106721,.00068922,97.6898,63.8384,52.6354,307.5496,0,U,63395,999,6907,.40543205E-3,.5E-4,0
LEMUR-2-KRISH,2025-135AK,2026-06-19T06:45:02.793312,14.96226608,.00016959,97.7755,285.1430,97.4933,262.6480,0,U,64561,999,5423,.3595702E-3,.3999E-4,0
LEMUR-2-HUBBLE-4,2025-135AP,2026-06-19T05:07:47.171424,14.93203251,.00009065,97.7701,284.0949,291.3171,68.7951,0,U,64565,999,5417,.11750288E-3,.1171E-4,0
LEMUR-2-SEJONG-2,2025-135BL,2026-06-19T07:27:13.923648,14.96708956,.00036286,97.7686,285.3167,329.6650,30.4361,0,U,64586,999,5426,.29980237E-3,.3366E-4,0
LEMUR-2-HUBBLE-5,2025-135BT,2026-06-19T07:12:40.982112,14.94140172,.00049111,97.7720,284.8181,346.1409,13.9676,0,U,64840,999,5422,.82167487E-4,.822E-5,0
LEMUR-2-KARENDARRELL,2025-135BU,2026-06-19T06:03:50.673312,15.00134716,.00098436,97.7683,286.4570,194.0466,166.0485,0,U,64841,999,5432,.51093183E-3,.6324E-4,0
LEMUR-2-LUCILLE-ROSE,2025-135BV,2026-06-19T05:25:53.782752,15.00174201,.00113253,97.7759,286.4522,274.4918,85.5011,0,U,65403,999,4894,.42648622E-3,.5275E-4,0
LEMUR-2-AFFIE-WAUWIE,2025-248C,2026-06-19T03:34:26.683680,15.27203290,.00073268,45.3921,104.3599,97.1817,262.9905,0,U,66295,999,3489,.57489484E-3,.15354E-3,0
LEMUR-2-DEANANDMAEVE,2025-276N,2026-06-19T03:47:54.534912,15.19752632,.00055227,97.4207,243.6012,8.0424,352.0898,0,U,66678,999,3071,.25348375E-3,.5355E-4,0
LEMUR-2-STAS-GORBUK,2025-276W,2026-06-19T04:09:27.244800,15.19398174,.00049181,97.4242,243.6708,8.8081,351.3239,0,U,66686,999,3071,.21062831E-3,.4391E-4,0
LEMUR-2-TEODOR,2025-276DG,2026-06-19T05:17:41.979264,15.21068802,.00022124,97.4148,243.9563,114.9855,245.1611,0,U,66768,999,3075,.2269875E-3,.4975E-4,0
LEMUR-2-LAILA,2025-276DQ,2026-06-19T04:39:42.697152,15.21290328,.00023232,97.4170,244.0523,133.2875,226.8555,0,U,66776,999,3075,.21070012E-3,.4643E-4,0
LEMUR-2-CELIJO-SB-PK,2025-276DW,2026-06-18T18:30:14.956416,14.99992221,.00086834,97.5245,240.4969,128.7901,231.4100,0,U,66781,999,2286,.38602036E-3,.4746E-4,0
